XRISM                   
1 57800U 23137A   26084.68666510  .00005694  00000+0  32067-3 0  9998
2 57800  31.0011 180.1788 0007937 200.4578 159.5743 15.11678380140215
ACS3                    
1 59588U 24077B   26084.76659181  .00016966  00000+0  13403-1 0  9997
2 59588  97.1984  22.2655 0071240  39.3445 321.2864 13.90324871 96435
SZ-21 MODULE            
1 66515U 25246C   26084.41173396  .00034230  00000+0  28093-3 0  9992
2 66515  41.4741 106.4894 0001002 208.3621 151.7166 15.69739008 20549
