CCSDS_OMM_VERS = 2.0
CREATION_DATE  = 
ORIGINATOR     = 

OBJECT_NAME    = XRISM
OBJECT_ID      = 2023-137A
CENTER_NAME    = EARTH
REF_FRAME      = TEME
TIME_SYSTEM    = UTC
MEAN_ELEMENT_THEORY = SGP/SGP4

EPOCH          = 2026-03-25T16:28:47.864640
MEAN_MOTION    = 15.11678380
ECCENTRICITY   = .0007937
INCLINATION    = 31.0011
RA_OF_ASC_NODE = 180.1788
ARG_OF_PERICENTER = 200.4578
MEAN_ANOMALY   = 159.5743

EPHEMERIS_TYPE = 0
CLASSIFICATION_TYPE = U
NORAD_CAT_ID   = 57800
ELEMENT_SET_NO = 999
REV_AT_EPOCH   = 14021
BSTAR          = .32067E-3
MEAN_MOTION_DOT = .5694E-4
MEAN_MOTION_DDOT = 0

CCSDS_OMM_VERS = 2.0
CREATION_DATE  = 
ORIGINATOR     = 

OBJECT_NAME    = ACS3
OBJECT_ID      = 2024-077B
CENTER_NAME    = EARTH
REF_FRAME      = TEME
TIME_SYSTEM    = UTC
MEAN_ELEMENT_THEORY = SGP/SGP4

EPOCH          = 2026-03-25T18:23:53.532384
MEAN_MOTION    = 13.90324871
ECCENTRICITY   = .007124
INCLINATION    = 97.1984
RA_OF_ASC_NODE = 22.2655
ARG_OF_PERICENTER = 39.3445
MEAN_ANOMALY   = 321.2864

EPHEMERIS_TYPE = 0
CLASSIFICATION_TYPE = U
NORAD_CAT_ID   = 59588
ELEMENT_SET_NO = 999
REV_AT_EPOCH   = 9643
BSTAR          = .13403E-1
MEAN_MOTION_DOT = .16966E-3
MEAN_MOTION_DDOT = 0

CCSDS_OMM_VERS = 2.0
CREATION_DATE  = 
ORIGINATOR     = 

OBJECT_NAME    = SZ-21 MODULE
OBJECT_ID      = 2025-246C
CENTER_NAME    = EARTH
REF_FRAME      = TEME
TIME_SYSTEM    = UTC
MEAN_ELEMENT_THEORY = SGP/SGP4

EPOCH          = 2026-03-25T09:52:53.814144
MEAN_MOTION    = 15.69739008
ECCENTRICITY   = .00010026
INCLINATION    = 41.4741
RA_OF_ASC_NODE = 106.4894
ARG_OF_PERICENTER = 208.3621
MEAN_ANOMALY   = 151.7166

EPHEMERIS_TYPE = 0
CLASSIFICATION_TYPE = U
NORAD_CAT_ID   = 66515
ELEMENT_SET_NO = 999
REV_AT_EPOCH   = 2054
BSTAR          = .28093455E-3
MEAN_MOTION_DOT = .3423E-3
MEAN_MOTION_DDOT = 0

